TRANSIT 16 [?]          
1 02807U 67048A   22032.93464150  .00000051  00000+0  63929-4 0  9991
2 02807  89.6458  41.2664 0018755 228.8800 194.1048 13.50285505692486
TRANSIT 17 [?]          
1 02965U 67092A   22033.52212193  .00000093  00000+0  12190-3 0  9998
2 02965  89.2509 133.7810 0047439   9.3661   1.6115 13.52996977680817
TRANSIT 18 [?]          
1 03133U 68012A   22033.11000756  .00000106  00000+0  14880-3 0  9997
2 03133  90.0003 271.5764 0073691 293.8504 177.4678 13.51126399655324
NNSS 19 [?]             
1 04507U 70067A   22033.07964143  .00000109  00000+0  13842-3 0  9990
2 04507  89.9088 240.4704 0173806  56.4163 305.3445 13.50796201532278
NNSS O-20 [?]           
1 06909U 73081A   22033.13508234  .00000140  00000+0  13497-3 0  9990
2 06909  89.8163 280.0810 0156228 342.9532  16.6415 13.70637235610751
TRANSAT [?]             
1 10457U 77106A   22032.84299503  .00000071  00000+0  97659-4 0  9994
2 10457  89.6935 126.7850 0023409 299.2132 177.2224 13.48661416177385
NOVA I [?]              
1 12458U 81044A   22033.14978028  .00000056  00000+0  11267-3 0  9996
2 12458  89.8945 109.1147 0015067  38.1148 338.5945 13.23048649965739
NOVA 3 [?]              
1 15362U 84110A   22032.88763602  .00000023  00000+0  34674-4 0  9992
2 15362  90.0892  65.7583 0029953 254.8809 280.1848 13.22817973800580
OSCAR 30 [?]            
1 15935U 85066A   22033.19042407  .00000096  00000+0  15462-3 0  9990
2 15935  90.1712  75.6015 0171034  99.9087 328.0469 13.35734638776417
OSCAR 24 [?]            
1 15936U 85066B   22032.82373863  .00000077  00000+0  12075-3 0  9999
2 15936  90.1642  67.6503 0171417 106.4200  65.8674 13.35594876778211
POLAR BEAR [?]          
1 17070U 86088A   22032.82502400  .00000078  00000+0  69526-4 0  9991
2 17070  89.5510 243.8964 0040631  54.0583 315.4370 13.74846107766047
OSCAR 27 [?]            
1 18361U 87080A   22032.92563592  .00000039  00000+0  52812-4 0  9995
2 18361  90.3230  29.7932 0102799 302.0333  57.0860 13.44540215686108
OSCAR 29 [?]            
1 18362U 87080B   22032.93045316  .00000003  00000+0 -67804-5 0  9996
2 18362  90.3240  30.1077 0104953 322.2796  95.7425 13.44131464685698
OSCAR 23 [?]            
1 19070U 88033A   22033.09497132  .00000034  00000+0  49296-4 0  9994
2 19070  90.3426 332.3509 0191050 139.5052 233.5374 13.27502706635766
OSCAR 32 [?]            
1 19071U 88033B   22033.10634840  .00000057  00000+0  94625-4 0  9997
2 19071  90.3426 332.4339 0189577 127.6081 245.4583 13.27683927636018
NOVA 11 [?]             
1 19223U 88052A   22033.53351289  .00000025  00000+0  40557-4 0  9997
2 19223  89.9699  81.2485 0028752 298.7344 184.2700 13.22734911623442
OSCAR 25 [?]            
1 19419U 88074A   22032.89989455  .00000047  00000+0  66627-4 0  9998
2 19419  90.0013  17.8296 0094938 308.3055 107.1067 13.42273138637258
OSCAR 31 [?]            
1 19420U 88074B   22033.52342407  .00000031  00000+0  39179-4 0  9996
2 19420  90.0024  17.9918 0092938 300.5832 172.3168 13.42286960637713
